[{"OBJECT_NAME":"IRIDE FM6","OBJECT_ID":"2025-276AL","EPOCH":"2026-03-09T18:13:54.633504","MEAN_MOTION":15.19819597,"ECCENTRICITY":5.407e-5,"INCLINATION":97.4286,"RA_OF_ASC_NODE":144.1581,"ARG_OF_PERICENTER":341.8424,"MEAN_ANOMALY":18.2792,"EPHEMERIS_TYPE":0,"CLASSIFICATION_TYPE":"U","NORAD_CAT_ID":66700,"ELEMENT_SET_NO":999,"REV_AT_EPOCH":1533,"BSTAR":0.00050046454,"MEAN_MOTION_DOT":0.00010662,"MEAN_MOTION_DDOT":0},{"OBJECT_NAME":"LANDSAT 5","OBJECT_ID":"1984-021A","EPOCH":"2026-03-09T17:06:39.595392","MEAN_MOTION":15.03956175,"ECCENTRICITY":0.00705197,"INCLINATION":98.0698,"RA_OF_ASC_NODE":343.5816,"ARG_OF_PERICENTER":90.3041,"MEAN_ANOMALY":270.6265,"EPHEMERIS_TYPE":0,"CLASSIFICATION_TYPE":"U","NORAD_CAT_ID":14780,"ELEMENT_SET_NO":999,"REV_AT_EPOCH":77643,"BSTAR":0.00029889959,"MEAN_MOTION_DOT":4.286e-5,"MEAN_MOTION_DDOT":0}]
